-j '{"locations":[{"lat":47.239819,"lon":9.525793,"type":"break","street":"Nellengasse","city":"Ruggell","postal_code":"9488","country":"Liechtenstein"},{"lat":47.232986,"lon":9.545749,"type":"break","street":"Franz-Sales-Weg","city":"Schellenberg","postal_code":"9488","country":"Liechtenstein"}],"costing":"auto","directions_options":{"units":"miles"}}'
-j '{"locations":[{"lat":47.239819,"lon":9.525793,"type":"break","street":"Nellengasse","city":"Ruggell","postal_code":"9488","country":"Liechtenstein"},{"lat":47.218929,"lon":9.509689,"type":"break","street":"Grütt","city":"Gamprin","postal_code":"9487","country":"Liechtenstein"}],"costing":"auto","directions_options":{"units":"miles"}}'
-j '{"locations":[{"lat":47.239819,"lon":9.525793,"type":"break","street":"Nellengasse","city":"Ruggell","postal_code":"9488","country":"Liechtenstein"},{"lat":47.219368,"lon":9.542434,"type":"break","street":"Weiherring","city":"Mauren","postal_code":"9493","country":"Liechtenstein"}],"costing":"auto","directions_options":{"units":"miles"}}'
-j '{"locations":[{"lat":47.239819,"lon":9.525793,"type":"break","street":"Nellengasse","city":"Ruggell","postal_code":"9488","country":"Liechtenstein"},{"lat":47.213299,"lon":9.522167,"type":"break","street":"Haldengasse","city":"Eschen","postal_code":"9492","country":"Liechtenstein"}],"costing":"auto","directions_options":{"units":"miles"}}'
-j '{"locations":[{"lat":47.239819,"lon":9.525793,"type":"break","street":"Nellengasse","city":"Ruggell","postal_code":"9488","country":"Liechtenstein"},{"lat":47.197109,"lon":9.542906,"type":"break","street":"Ziegeleistrasse","city":"Eschen","postal_code":"9485","country":"Liechtenstein"}],"costing":"auto","directions_options":{"units":"miles"}}'
-j '{"locations":[{"lat":47.239819,"lon":9.525793,"type":"break","street":"Nellengasse","city":"Ruggell","postal_code":"9488","country":"Liechtenstein"},{"lat":47.185909,"lon":9.546339,"type":"break","street":"100 Dorfstrasse","city":"Planken","postal_code":"9498","country":"Liechtenstein"}],"costing":"auto","directions_options":{"units":"miles"}}'
-j '{"locations":[{"lat":47.239819,"lon":9.525793,"type":"break","street":"Nellengasse","city":"Ruggell","postal_code":"9488","country":"Liechtenstein"},{"lat":47.165375,"lon":9.511084,"type":"break","street":"Laurentiusweg","city":"Schaan","postal_code":"9494","country":"Liechtenstein"}],"costing":"auto","directions_options":{"units":"miles"}}'
-j '{"locations":[{"lat":47.239819,"lon":9.525793,"type":"break","street":"Nellengasse","city":"Ruggell","postal_code":"9488","country":"Liechtenstein"},{"lat":47.139015,"lon":9.525788,"type":"break","street":"Bergstrasse","city":"Vaduz","postal_code":"94490","country":"Liechtenstein"}],"costing":"auto","directions_options":{"units":"miles"}}'
-j '{"locations":[{"lat":47.239819,"lon":9.525793,"type":"break","street":"Nellengasse","city":"Ruggell","postal_code":"9488","country":"Liechtenstein"},{"lat":47.127628,"lon":9.539156,"type":"break","street":"Rotenbodenstrasse","city":"Triesenberg","postal_code":"9497","country":"Liechtenstein"}],"costing":"auto","directions_options":{"units":"miles"}}'
-j '{"locations":[{"lat":47.239819,"lon":9.525793,"type":"break","street":"Nellengasse","city":"Ruggell","postal_code":"9488","country":"Liechtenstein"},{"lat":47.118752,"lon":9.543147,"type":"break","street":"Schlossstrasse","city":"Triesenberg","postal_code":"9497","country":"Liechtenstein"}],"costing":"auto","directions_options":{"units":"miles"}}'
-j '{"locations":[{"lat":47.239819,"lon":9.525793,"type":"break","street":"Nellengasse","city":"Ruggell","postal_code":"9488","country":"Liechtenstein"},{"lat":47.107216,"lon":9.528277,"type":"break","street":"11 Gapont","city":"Triesen","postal_code":"9495","country":"Liechtenstein"}],"costing":"auto","directions_options":{"units":"miles"}}'
-j '{"locations":[{"lat":47.239819,"lon":9.525793,"type":"break","street":"Nellengasse","city":"Ruggell","postal_code":"9488","country":"Liechtenstein"},{"lat":47.068691,"lon":9.504094,"type":"break","street":"Zwischenbäch","city":"Balzers","postal_code":"9496","country":"Liechtenstein"}],"costing":"auto","directions_options":{"units":"miles"}}'
-j '{"locations":[{"lat":47.232986,"lon":9.545749,"type":"break","street":"Franz-Sales-Weg","city":"Schellenberg","postal_code":"9488","country":"Liechtenstein"},{"lat":47.239819,"lon":9.525793,"type":"break","street":"Nellengasse","city":"Ruggell","postal_code":"9488","country":"Liechtenstein"}],"costing":"auto","directions_options":{"units":"miles"}}'
-j '{"locations":[{"lat":47.232986,"lon":9.545749,"type":"break","street":"Franz-Sales-Weg","city":"Schellenberg","postal_code":"9488","country":"Liechtenstein"},{"lat":47.218929,"lon":9.509689,"type":"break","street":"Grütt","city":"Gamprin","postal_code":"9487","country":"Liechtenstein"}],"costing":"auto","directions_options":{"units":"miles"}}'
-j '{"locations":[{"lat":47.232986,"lon":9.545749,"type":"break","street":"Franz-Sales-Weg","city":"Schellenberg","postal_code":"9488","country":"Liechtenstein"},{"lat":47.219368,"lon":9.542434,"type":"break","street":"Weiherring","city":"Mauren","postal_code":"9493","country":"Liechtenstein"}],"costing":"auto","directions_options":{"units":"miles"}}'
-j '{"locations":[{"lat":47.232986,"lon":9.545749,"type":"break","street":"Franz-Sales-Weg","city":"Schellenberg","postal_code":"9488","country":"Liechtenstein"},{"lat":47.213299,"lon":9.522167,"type":"break","street":"Haldengasse","city":"Eschen","postal_code":"9492","country":"Liechtenstein"}],"costing":"auto","directions_options":{"units":"miles"}}'
-j '{"locations":[{"lat":47.232986,"lon":9.545749,"type":"break","street":"Franz-Sales-Weg","city":"Schellenberg","postal_code":"9488","country":"Liechtenstein"},{"lat":47.197109,"lon":9.542906,"type":"break","street":"Ziegeleistrasse","city":"Eschen","postal_code":"9485","country":"Liechtenstein"}],"costing":"auto","directions_options":{"units":"miles"}}'
-j '{"locations":[{"lat":47.232986,"lon":9.545749,"type":"break","street":"Franz-Sales-Weg","city":"Schellenberg","postal_code":"9488","country":"Liechtenstein"},{"lat":47.185909,"lon":9.546339,"type":"break","street":"100 Dorfstrasse","city":"Planken","postal_code":"9498","country":"Liechtenstein"}],"costing":"auto","directions_options":{"units":"miles"}}'
-j '{"locations":[{"lat":47.232986,"lon":9.545749,"type":"break","street":"Franz-Sales-Weg","city":"Schellenberg","postal_code":"9488","country":"Liechtenstein"},{"lat":47.165375,"lon":9.511084,"type":"break","street":"Laurentiusweg","city":"Schaan","postal_code":"9494","country":"Liechtenstein"}],"costing":"auto","directions_options":{"units":"miles"}}'
-j '{"locations":[{"lat":47.232986,"lon":9.545749,"type":"break","street":"Franz-Sales-Weg","city":"Schellenberg","postal_code":"9488","country":"Liechtenstein"},{"lat":47.139015,"lon":9.525788,"type":"break","street":"Bergstrasse","city":"Vaduz","postal_code":"94490","country":"Liechtenstein"}],"costing":"auto","directions_options":{"units":"miles"}}'
-j '{"locations":[{"lat":47.232986,"lon":9.545749,"type":"break","street":"Franz-Sales-Weg","city":"Schellenberg","postal_code":"9488","country":"Liechtenstein"},{"lat":47.127628,"lon":9.539156,"type":"break","street":"Rotenbodenstrasse","city":"Triesenberg","postal_code":"9497","country":"Liechtenstein"}],"costing":"auto","directions_options":{"units":"miles"}}'
-j '{"locations":[{"lat":47.232986,"lon":9.545749,"type":"break","street":"Franz-Sales-Weg","city":"Schellenberg","postal_code":"9488","country":"Liechtenstein"},{"lat":47.118752,"lon":9.543147,"type":"break","street":"Schlossstrasse","city":"Triesenberg","postal_code":"9497","country":"Liechtenstein"}],"costing":"auto","directions_options":{"units":"miles"}}'
-j '{"locations":[{"lat":47.232986,"lon":9.545749,"type":"break","street":"Franz-Sales-Weg","city":"Schellenberg","postal_code":"9488","country":"Liechtenstein"},{"lat":47.107216,"lon":9.528277,"type":"break","street":"11 Gapont","city":"Triesen","postal_code":"9495","country":"Liechtenstein"}],"costing":"auto","directions_options":{"units":"miles"}}'
-j '{"locations":[{"lat":47.232986,"lon":9.545749,"type":"break","street":"Franz-Sales-Weg","city":"Schellenberg","postal_code":"9488","country":"Liechtenstein"},{"lat":47.068691,"lon":9.504094,"type":"break","street":"Zwischenbäch","city":"Balzers","postal_code":"9496","country":"Liechtenstein"}],"costing":"auto","directions_options":{"units":"miles"}}'
-j '{"locations":[{"lat":47.218929,"lon":9.509689,"type":"break","street":"Grütt","city":"Gamprin","postal_code":"9487","country":"Liechtenstein"},{"lat":47.239819,"lon":9.525793,"type":"break","street":"Nellengasse","city":"Ruggell","postal_code":"9488","country":"Liechtenstein"}],"costing":"auto","directions_options":{"units":"miles"}}'
-j '{"locations":[{"lat":47.218929,"lon":9.509689,"type":"break","street":"Grütt","city":"Gamprin","postal_code":"9487","country":"Liechtenstein"},{"lat":47.232986,"lon":9.545749,"type":"break","street":"Franz-Sales-Weg","city":"Schellenberg","postal_code":"9488","country":"Liechtenstein"}],"costing":"auto","directions_options":{"units":"miles"}}'
-j '{"locations":[{"lat":47.218929,"lon":9.509689,"type":"break","street":"Grütt","city":"Gamprin","postal_code":"9487","country":"Liechtenstein"},{"lat":47.219368,"lon":9.542434,"type":"break","street":"Weiherring","city":"Mauren","postal_code":"9493","country":"Liechtenstein"}],"costing":"auto","directions_options":{"units":"miles"}}'
-j '{"locations":[{"lat":47.218929,"lon":9.509689,"type":"break","street":"Grütt","city":"Gamprin","postal_code":"9487","country":"Liechtenstein"},{"lat":47.213299,"lon":9.522167,"type":"break","street":"Haldengasse","city":"Eschen","postal_code":"9492","country":"Liechtenstein"}],"costing":"auto","directions_options":{"units":"miles"}}'
-j '{"locations":[{"lat":47.218929,"lon":9.509689,"type":"break","street":"Grütt","city":"Gamprin","postal_code":"9487","country":"Liechtenstein"},{"lat":47.197109,"lon":9.542906,"type":"break","street":"Ziegeleistrasse","city":"Eschen","postal_code":"9485","country":"Liechtenstein"}],"costing":"auto","directions_options":{"units":"miles"}}'
-j '{"locations":[{"lat":47.218929,"lon":9.509689,"type":"break","street":"Grütt","city":"Gamprin","postal_code":"9487","country":"Liechtenstein"},{"lat":47.185909,"lon":9.546339,"type":"break","street":"100 Dorfstrasse","city":"Planken","postal_code":"9498","country":"Liechtenstein"}],"costing":"auto","directions_options":{"units":"miles"}}'
-j '{"locations":[{"lat":47.218929,"lon":9.509689,"type":"break","street":"Grütt","city":"Gamprin","postal_code":"9487","country":"Liechtenstein"},{"lat":47.165375,"lon":9.511084,"type":"break","street":"Laurentiusweg","city":"Schaan","postal_code":"9494","country":"Liechtenstein"}],"costing":"auto","directions_options":{"units":"miles"}}'
-j '{"locations":[{"lat":47.218929,"lon":9.509689,"type":"break","street":"Grütt","city":"Gamprin","postal_code":"9487","country":"Liechtenstein"},{"lat":47.139015,"lon":9.525788,"type":"break","street":"Bergstrasse","city":"Vaduz","postal_code":"94490","country":"Liechtenstein"}],"costing":"auto","directions_options":{"units":"miles"}}'
-j '{"locations":[{"lat":47.218929,"lon":9.509689,"type":"break","street":"Grütt","city":"Gamprin","postal_code":"9487","country":"Liechtenstein"},{"lat":47.127628,"lon":9.539156,"type":"break","street":"Rotenbodenstrasse","city":"Triesenberg","postal_code":"9497","country":"Liechtenstein"}],"costing":"auto","directions_options":{"units":"miles"}}'
-j '{"locations":[{"lat":47.218929,"lon":9.509689,"type":"break","street":"Grütt","city":"Gamprin","postal_code":"9487","country":"Liechtenstein"},{"lat":47.118752,"lon":9.543147,"type":"break","street":"Schlossstrasse","city":"Triesenberg","postal_code":"9497","country":"Liechtenstein"}],"costing":"auto","directions_options":{"units":"miles"}}'
-j '{"locations":[{"lat":47.218929,"lon":9.509689,"type":"break","street":"Grütt","city":"Gamprin","postal_code":"9487","country":"Liechtenstein"},{"lat":47.107216,"lon":9.528277,"type":"break","street":"11 Gapont","city":"Triesen","postal_code":"9495","country":"Liechtenstein"}],"costing":"auto","directions_options":{"units":"miles"}}'
-j '{"locations":[{"lat":47.218929,"lon":9.509689,"type":"break","street":"Grütt","city":"Gamprin","postal_code":"9487","country":"Liechtenstein"},{"lat":47.068691,"lon":9.504094,"type":"break","street":"Zwischenbäch","city":"Balzers","postal_code":"9496","country":"Liechtenstein"}],"costing":"auto","directions_options":{"units":"miles"}}'
-j '{"locations":[{"lat":47.219368,"lon":9.542434,"type":"break","street":"Weiherring","city":"Mauren","postal_code":"9493","country":"Liechtenstein"},{"lat":47.239819,"lon":9.525793,"type":"break","street":"Nellengasse","city":"Ruggell","postal_code":"9488","country":"Liechtenstein"}],"costing":"auto","directions_options":{"units":"miles"}}'
-j '{"locations":[{"lat":47.219368,"lon":9.542434,"type":"break","street":"Weiherring","city":"Mauren","postal_code":"9493","country":"Liechtenstein"},{"lat":47.232986,"lon":9.545749,"type":"break","street":"Franz-Sales-Weg","city":"Schellenberg","postal_code":"9488","country":"Liechtenstein"}],"costing":"auto","directions_options":{"units":"miles"}}'
-j '{"locations":[{"lat":47.219368,"lon":9.542434,"type":"break","street":"Weiherring","city":"Mauren","postal_code":"9493","country":"Liechtenstein"},{"lat":47.218929,"lon":9.509689,"type":"break","street":"Grütt","city":"Gamprin","postal_code":"9487","country":"Liechtenstein"}],"costing":"auto","directions_options":{"units":"miles"}}'
-j '{"locations":[{"lat":47.219368,"lon":9.542434,"type":"break","street":"Weiherring","city":"Mauren","postal_code":"9493","country":"Liechtenstein"},{"lat":47.213299,"lon":9.522167,"type":"break","street":"Haldengasse","city":"Eschen","postal_code":"9492","country":"Liechtenstein"}],"costing":"auto","directions_options":{"units":"miles"}}'
-j '{"locations":[{"lat":47.219368,"lon":9.542434,"type":"break","street":"Weiherring","city":"Mauren","postal_code":"9493","country":"Liechtenstein"},{"lat":47.197109,"lon":9.542906,"type":"break","street":"Ziegeleistrasse","city":"Eschen","postal_code":"9485","country":"Liechtenstein"}],"costing":"auto","directions_options":{"units":"miles"}}'
-j '{"locations":[{"lat":47.219368,"lon":9.542434,"type":"break","street":"Weiherring","city":"Mauren","postal_code":"9493","country":"Liechtenstein"},{"lat":47.185909,"lon":9.546339,"type":"break","street":"100 Dorfstrasse","city":"Planken","postal_code":"9498","country":"Liechtenstein"}],"costing":"auto","directions_options":{"units":"miles"}}'
-j '{"locations":[{"lat":47.219368,"lon":9.542434,"type":"break","street":"Weiherring","city":"Mauren","postal_code":"9493","country":"Liechtenstein"},{"lat":47.165375,"lon":9.511084,"type":"break","street":"Laurentiusweg","city":"Schaan","postal_code":"9494","country":"Liechtenstein"}],"costing":"auto","directions_options":{"units":"miles"}}'
-j '{"locations":[{"lat":47.219368,"lon":9.542434,"type":"break","street":"Weiherring","city":"Mauren","postal_code":"9493","country":"Liechtenstein"},{"lat":47.139015,"lon":9.525788,"type":"break","street":"Bergstrasse","city":"Vaduz","postal_code":"94490","country":"Liechtenstein"}],"costing":"auto","directions_options":{"units":"miles"}}'
-j '{"locations":[{"lat":47.219368,"lon":9.542434,"type":"break","street":"Weiherring","city":"Mauren","postal_code":"9493","country":"Liechtenstein"},{"lat":47.127628,"lon":9.539156,"type":"break","street":"Rotenbodenstrasse","city":"Triesenberg","postal_code":"9497","country":"Liechtenstein"}],"costing":"auto","directions_options":{"units":"miles"}}'
-j '{"locations":[{"lat":47.219368,"lon":9.542434,"type":"break","street":"Weiherring","city":"Mauren","postal_code":"9493","country":"Liechtenstein"},{"lat":47.118752,"lon":9.543147,"type":"break","street":"Schlossstrasse","city":"Triesenberg","postal_code":"9497","country":"Liechtenstein"}],"costing":"auto","directions_options":{"units":"miles"}}'
-j '{"locations":[{"lat":47.219368,"lon":9.542434,"type":"break","street":"Weiherring","city":"Mauren","postal_code":"9493","country":"Liechtenstein"},{"lat":47.107216,"lon":9.528277,"type":"break","street":"11 Gapont","city":"Triesen","postal_code":"9495","country":"Liechtenstein"}],"costing":"auto","directions_options":{"units":"miles"}}'
-j '{"locations":[{"lat":47.219368,"lon":9.542434,"type":"break","street":"Weiherring","city":"Mauren","postal_code":"9493","country":"Liechtenstein"},{"lat":47.068691,"lon":9.504094,"type":"break","street":"Zwischenbäch","city":"Balzers","postal_code":"9496","country":"Liechtenstein"}],"costing":"auto","directions_options":{"units":"miles"}}'
-j '{"locations":[{"lat":47.213299,"lon":9.522167,"type":"break","street":"Haldengasse","city":"Eschen","postal_code":"9492","country":"Liechtenstein"},{"lat":47.239819,"lon":9.525793,"type":"break","street":"Nellengasse","city":"Ruggell","postal_code":"9488","country":"Liechtenstein"}],"costing":"auto","directions_options":{"units":"miles"}}'
-j '{"locations":[{"lat":47.213299,"lon":9.522167,"type":"break","street":"Haldengasse","city":"Eschen","postal_code":"9492","country":"Liechtenstein"},{"lat":47.232986,"lon":9.545749,"type":"break","street":"Franz-Sales-Weg","city":"Schellenberg","postal_code":"9488","country":"Liechtenstein"}],"costing":"auto","directions_options":{"units":"miles"}}'
-j '{"locations":[{"lat":47.213299,"lon":9.522167,"type":"break","street":"Haldengasse","city":"Eschen","postal_code":"9492","country":"Liechtenstein"},{"lat":47.218929,"lon":9.509689,"type":"break","street":"Grütt","city":"Gamprin","postal_code":"9487","country":"Liechtenstein"}],"costing":"auto","directions_options":{"units":"miles"}}'
-j '{"locations":[{"lat":47.213299,"lon":9.522167,"type":"break","street":"Haldengasse","city":"Eschen","postal_code":"9492","country":"Liechtenstein"},{"lat":47.219368,"lon":9.542434,"type":"break","street":"Weiherring","city":"Mauren","postal_code":"9493","country":"Liechtenstein"}],"costing":"auto","directions_options":{"units":"miles"}}'
-j '{"locations":[{"lat":47.213299,"lon":9.522167,"type":"break","street":"Haldengasse","city":"Eschen","postal_code":"9492","country":"Liechtenstein"},{"lat":47.197109,"lon":9.542906,"type":"break","street":"Ziegeleistrasse","city":"Eschen","postal_code":"9485","country":"Liechtenstein"}],"costing":"auto","directions_options":{"units":"miles"}}'
-j '{"locations":[{"lat":47.213299,"lon":9.522167,"type":"break","street":"Haldengasse","city":"Eschen","postal_code":"9492","country":"Liechtenstein"},{"lat":47.185909,"lon":9.546339,"type":"break","street":"100 Dorfstrasse","city":"Planken","postal_code":"9498","country":"Liechtenstein"}],"costing":"auto","directions_options":{"units":"miles"}}'
-j '{"locations":[{"lat":47.213299,"lon":9.522167,"type":"break","street":"Haldengasse","city":"Eschen","postal_code":"9492","country":"Liechtenstein"},{"lat":47.165375,"lon":9.511084,"type":"break","street":"Laurentiusweg","city":"Schaan","postal_code":"9494","country":"Liechtenstein"}],"costing":"auto","directions_options":{"units":"miles"}}'
-j '{"locations":[{"lat":47.213299,"lon":9.522167,"type":"break","street":"Haldengasse","city":"Eschen","postal_code":"9492","country":"Liechtenstein"},{"lat":47.139015,"lon":9.525788,"type":"break","street":"Bergstrasse","city":"Vaduz","postal_code":"94490","country":"Liechtenstein"}],"costing":"auto","directions_options":{"units":"miles"}}'
-j '{"locations":[{"lat":47.213299,"lon":9.522167,"type":"break","street":"Haldengasse","city":"Eschen","postal_code":"9492","country":"Liechtenstein"},{"lat":47.127628,"lon":9.539156,"type":"break","street":"Rotenbodenstrasse","city":"Triesenberg","postal_code":"9497","country":"Liechtenstein"}],"costing":"auto","directions_options":{"units":"miles"}}'
-j '{"locations":[{"lat":47.213299,"lon":9.522167,"type":"break","street":"Haldengasse","city":"Eschen","postal_code":"9492","country":"Liechtenstein"},{"lat":47.118752,"lon":9.543147,"type":"break","street":"Schlossstrasse","city":"Triesenberg","postal_code":"9497","country":"Liechtenstein"}],"costing":"auto","directions_options":{"units":"miles"}}'
-j '{"locations":[{"lat":47.213299,"lon":9.522167,"type":"break","street":"Haldengasse","city":"Eschen","postal_code":"9492","country":"Liechtenstein"},{"lat":47.107216,"lon":9.528277,"type":"break","street":"11 Gapont","city":"Triesen","postal_code":"9495","country":"Liechtenstein"}],"costing":"auto","directions_options":{"units":"miles"}}'
-j '{"locations":[{"lat":47.213299,"lon":9.522167,"type":"break","street":"Haldengasse","city":"Eschen","postal_code":"9492","country":"Liechtenstein"},{"lat":47.068691,"lon":9.504094,"type":"break","street":"Zwischenbäch","city":"Balzers","postal_code":"9496","country":"Liechtenstein"}],"costing":"auto","directions_options":{"units":"miles"}}'
-j '{"locations":[{"lat":47.197109,"lon":9.542906,"type":"break","street":"Ziegeleistrasse","city":"Eschen","postal_code":"9485","country":"Liechtenstein"},{"lat":47.239819,"lon":9.525793,"type":"break","street":"Nellengasse","city":"Ruggell","postal_code":"9488","country":"Liechtenstein"}],"costing":"auto","directions_options":{"units":"miles"}}'
-j '{"locations":[{"lat":47.197109,"lon":9.542906,"type":"break","street":"Ziegeleistrasse","city":"Eschen","postal_code":"9485","country":"Liechtenstein"},{"lat":47.232986,"lon":9.545749,"type":"break","street":"Franz-Sales-Weg","city":"Schellenberg","postal_code":"9488","country":"Liechtenstein"}],"costing":"auto","directions_options":{"units":"miles"}}'
-j '{"locations":[{"lat":47.197109,"lon":9.542906,"type":"break","street":"Ziegeleistrasse","city":"Eschen","postal_code":"9485","country":"Liechtenstein"},{"lat":47.218929,"lon":9.509689,"type":"break","street":"Grütt","city":"Gamprin","postal_code":"9487","country":"Liechtenstein"}],"costing":"auto","directions_options":{"units":"miles"}}'
-j '{"locations":[{"lat":47.197109,"lon":9.542906,"type":"break","street":"Ziegeleistrasse","city":"Eschen","postal_code":"9485","country":"Liechtenstein"},{"lat":47.219368,"lon":9.542434,"type":"break","street":"Weiherring","city":"Mauren","postal_code":"9493","country":"Liechtenstein"}],"costing":"auto","directions_options":{"units":"miles"}}'
-j '{"locations":[{"lat":47.197109,"lon":9.542906,"type":"break","street":"Ziegeleistrasse","city":"Eschen","postal_code":"9485","country":"Liechtenstein"},{"lat":47.213299,"lon":9.522167,"type":"break","street":"Haldengasse","city":"Eschen","postal_code":"9492","country":"Liechtenstein"}],"costing":"auto","directions_options":{"units":"miles"}}'
-j '{"locations":[{"lat":47.197109,"lon":9.542906,"type":"break","street":"Ziegeleistrasse","city":"Eschen","postal_code":"9485","country":"Liechtenstein"},{"lat":47.185909,"lon":9.546339,"type":"break","street":"100 Dorfstrasse","city":"Planken","postal_code":"9498","country":"Liechtenstein"}],"costing":"auto","directions_options":{"units":"miles"}}'
-j '{"locations":[{"lat":47.197109,"lon":9.542906,"type":"break","street":"Ziegeleistrasse","city":"Eschen","postal_code":"9485","country":"Liechtenstein"},{"lat":47.165375,"lon":9.511084,"type":"break","street":"Laurentiusweg","city":"Schaan","postal_code":"9494","country":"Liechtenstein"}],"costing":"auto","directions_options":{"units":"miles"}}'
-j '{"locations":[{"lat":47.197109,"lon":9.542906,"type":"break","street":"Ziegeleistrasse","city":"Eschen","postal_code":"9485","country":"Liechtenstein"},{"lat":47.139015,"lon":9.525788,"type":"break","street":"Bergstrasse","city":"Vaduz","postal_code":"94490","country":"Liechtenstein"}],"costing":"auto","directions_options":{"units":"miles"}}'
-j '{"locations":[{"lat":47.197109,"lon":9.542906,"type":"break","street":"Ziegeleistrasse","city":"Eschen","postal_code":"9485","country":"Liechtenstein"},{"lat":47.127628,"lon":9.539156,"type":"break","street":"Rotenbodenstrasse","city":"Triesenberg","postal_code":"9497","country":"Liechtenstein"}],"costing":"auto","directions_options":{"units":"miles"}}'
-j '{"locations":[{"lat":47.197109,"lon":9.542906,"type":"break","street":"Ziegeleistrasse","city":"Eschen","postal_code":"9485","country":"Liechtenstein"},{"lat":47.118752,"lon":9.543147,"type":"break","street":"Schlossstrasse","city":"Triesenberg","postal_code":"9497","country":"Liechtenstein"}],"costing":"auto","directions_options":{"units":"miles"}}'
-j '{"locations":[{"lat":47.197109,"lon":9.542906,"type":"break","street":"Ziegeleistrasse","city":"Eschen","postal_code":"9485","country":"Liechtenstein"},{"lat":47.107216,"lon":9.528277,"type":"break","street":"11 Gapont","city":"Triesen","postal_code":"9495","country":"Liechtenstein"}],"costing":"auto","directions_options":{"units":"miles"}}'
-j '{"locations":[{"lat":47.197109,"lon":9.542906,"type":"break","street":"Ziegeleistrasse","city":"Eschen","postal_code":"9485","country":"Liechtenstein"},{"lat":47.068691,"lon":9.504094,"type":"break","street":"Zwischenbäch","city":"Balzers","postal_code":"9496","country":"Liechtenstein"}],"costing":"auto","directions_options":{"units":"miles"}}'
-j '{"locations":[{"lat":47.185909,"lon":9.546339,"type":"break","street":"100 Dorfstrasse","city":"Planken","postal_code":"9498","country":"Liechtenstein"},{"lat":47.239819,"lon":9.525793,"type":"break","street":"Nellengasse","city":"Ruggell","postal_code":"9488","country":"Liechtenstein"}],"costing":"auto","directions_options":{"units":"miles"}}'
-j '{"locations":[{"lat":47.185909,"lon":9.546339,"type":"break","street":"100 Dorfstrasse","city":"Planken","postal_code":"9498","country":"Liechtenstein"},{"lat":47.232986,"lon":9.545749,"type":"break","street":"Franz-Sales-Weg","city":"Schellenberg","postal_code":"9488","country":"Liechtenstein"}],"costing":"auto","directions_options":{"units":"miles"}}'
-j '{"locations":[{"lat":47.185909,"lon":9.546339,"type":"break","street":"100 Dorfstrasse","city":"Planken","postal_code":"9498","country":"Liechtenstein"},{"lat":47.218929,"lon":9.509689,"type":"break","street":"Grütt","city":"Gamprin","postal_code":"9487","country":"Liechtenstein"}],"costing":"auto","directions_options":{"units":"miles"}}'
-j '{"locations":[{"lat":47.185909,"lon":9.546339,"type":"break","street":"100 Dorfstrasse","city":"Planken","postal_code":"9498","country":"Liechtenstein"},{"lat":47.219368,"lon":9.542434,"type":"break","street":"Weiherring","city":"Mauren","postal_code":"9493","country":"Liechtenstein"}],"costing":"auto","directions_options":{"units":"miles"}}'
-j '{"locations":[{"lat":47.185909,"lon":9.546339,"type":"break","street":"100 Dorfstrasse","city":"Planken","postal_code":"9498","country":"Liechtenstein"},{"lat":47.213299,"lon":9.522167,"type":"break","street":"Haldengasse","city":"Eschen","postal_code":"9492","country":"Liechtenstein"}],"costing":"auto","directions_options":{"units":"miles"}}'
-j '{"locations":[{"lat":47.185909,"lon":9.546339,"type":"break","street":"100 Dorfstrasse","city":"Planken","postal_code":"9498","country":"Liechtenstein"},{"lat":47.197109,"lon":9.542906,"type":"break","street":"Ziegeleistrasse","city":"Eschen","postal_code":"9485","country":"Liechtenstein"}],"costing":"auto","directions_options":{"units":"miles"}}'
-j '{"locations":[{"lat":47.185909,"lon":9.546339,"type":"break","street":"100 Dorfstrasse","city":"Planken","postal_code":"9498","country":"Liechtenstein"},{"lat":47.165375,"lon":9.511084,"type":"break","street":"Laurentiusweg","city":"Schaan","postal_code":"9494","country":"Liechtenstein"}],"costing":"auto","directions_options":{"units":"miles"}}'
-j '{"locations":[{"lat":47.185909,"lon":9.546339,"type":"break","street":"100 Dorfstrasse","city":"Planken","postal_code":"9498","country":"Liechtenstein"},{"lat":47.139015,"lon":9.525788,"type":"break","street":"Bergstrasse","city":"Vaduz","postal_code":"94490","country":"Liechtenstein"}],"costing":"auto","directions_options":{"units":"miles"}}'
-j '{"locations":[{"lat":47.185909,"lon":9.546339,"type":"break","street":"100 Dorfstrasse","city":"Planken","postal_code":"9498","country":"Liechtenstein"},{"lat":47.127628,"lon":9.539156,"type":"break","street":"Rotenbodenstrasse","city":"Triesenberg","postal_code":"9497","country":"Liechtenstein"}],"costing":"auto","directions_options":{"units":"miles"}}'
-j '{"locations":[{"lat":47.185909,"lon":9.546339,"type":"break","street":"100 Dorfstrasse","city":"Planken","postal_code":"9498","country":"Liechtenstein"},{"lat":47.118752,"lon":9.543147,"type":"break","street":"Schlossstrasse","city":"Triesenberg","postal_code":"9497","country":"Liechtenstein"}],"costing":"auto","directions_options":{"units":"miles"}}'
-j '{"locations":[{"lat":47.185909,"lon":9.546339,"type":"break","street":"100 Dorfstrasse","city":"Planken","postal_code":"9498","country":"Liechtenstein"},{"lat":47.107216,"lon":9.528277,"type":"break","street":"11 Gapont","city":"Triesen","postal_code":"9495","country":"Liechtenstein"}],"costing":"auto","directions_options":{"units":"miles"}}'
-j '{"locations":[{"lat":47.185909,"lon":9.546339,"type":"break","street":"100 Dorfstrasse","city":"Planken","postal_code":"9498","country":"Liechtenstein"},{"lat":47.068691,"lon":9.504094,"type":"break","street":"Zwischenbäch","city":"Balzers","postal_code":"9496","country":"Liechtenstein"}],"costing":"auto","directions_options":{"units":"miles"}}'
-j '{"locations":[{"lat":47.165375,"lon":9.511084,"type":"break","street":"Laurentiusweg","city":"Schaan","postal_code":"9494","country":"Liechtenstein"},{"lat":47.239819,"lon":9.525793,"type":"break","street":"Nellengasse","city":"Ruggell","postal_code":"9488","country":"Liechtenstein"}],"costing":"auto","directions_options":{"units":"miles"}}'
-j '{"locations":[{"lat":47.165375,"lon":9.511084,"type":"break","street":"Laurentiusweg","city":"Schaan","postal_code":"9494","country":"Liechtenstein"},{"lat":47.232986,"lon":9.545749,"type":"break","street":"Franz-Sales-Weg","city":"Schellenberg","postal_code":"9488","country":"Liechtenstein"}],"costing":"auto","directions_options":{"units":"miles"}}'
-j '{"locations":[{"lat":47.165375,"lon":9.511084,"type":"break","street":"Laurentiusweg","city":"Schaan","postal_code":"9494","country":"Liechtenstein"},{"lat":47.218929,"lon":9.509689,"type":"break","street":"Grütt","city":"Gamprin","postal_code":"9487","country":"Liechtenstein"}],"costing":"auto","directions_options":{"units":"miles"}}'
-j '{"locations":[{"lat":47.165375,"lon":9.511084,"type":"break","street":"Laurentiusweg","city":"Schaan","postal_code":"9494","country":"Liechtenstein"},{"lat":47.219368,"lon":9.542434,"type":"break","street":"Weiherring","city":"Mauren","postal_code":"9493","country":"Liechtenstein"}],"costing":"auto","directions_options":{"units":"miles"}}'
-j '{"locations":[{"lat":47.165375,"lon":9.511084,"type":"break","street":"Laurentiusweg","city":"Schaan","postal_code":"9494","country":"Liechtenstein"},{"lat":47.213299,"lon":9.522167,"type":"break","street":"Haldengasse","city":"Eschen","postal_code":"9492","country":"Liechtenstein"}],"costing":"auto","directions_options":{"units":"miles"}}'
-j '{"locations":[{"lat":47.165375,"lon":9.511084,"type":"break","street":"Laurentiusweg","city":"Schaan","postal_code":"9494","country":"Liechtenstein"},{"lat":47.197109,"lon":9.542906,"type":"break","street":"Ziegeleistrasse","city":"Eschen","postal_code":"9485","country":"Liechtenstein"}],"costing":"auto","directions_options":{"units":"miles"}}'
-j '{"locations":[{"lat":47.165375,"lon":9.511084,"type":"break","street":"Laurentiusweg","city":"Schaan","postal_code":"9494","country":"Liechtenstein"},{"lat":47.185909,"lon":9.546339,"type":"break","street":"100 Dorfstrasse","city":"Planken","postal_code":"9498","country":"Liechtenstein"}],"costing":"auto","directions_options":{"units":"miles"}}'
-j '{"locations":[{"lat":47.165375,"lon":9.511084,"type":"break","street":"Laurentiusweg","city":"Schaan","postal_code":"9494","country":"Liechtenstein"},{"lat":47.139015,"lon":9.525788,"type":"break","street":"Bergstrasse","city":"Vaduz","postal_code":"94490","country":"Liechtenstein"}],"costing":"auto","directions_options":{"units":"miles"}}'
-j '{"locations":[{"lat":47.165375,"lon":9.511084,"type":"break","street":"Laurentiusweg","city":"Schaan","postal_code":"9494","country":"Liechtenstein"},{"lat":47.127628,"lon":9.539156,"type":"break","street":"Rotenbodenstrasse","city":"Triesenberg","postal_code":"9497","country":"Liechtenstein"}],"costing":"auto","directions_options":{"units":"miles"}}'
-j '{"locations":[{"lat":47.165375,"lon":9.511084,"type":"break","street":"Laurentiusweg","city":"Schaan","postal_code":"9494","country":"Liechtenstein"},{"lat":47.118752,"lon":9.543147,"type":"break","street":"Schlossstrasse","city":"Triesenberg","postal_code":"9497","country":"Liechtenstein"}],"costing":"auto","directions_options":{"units":"miles"}}'
-j '{"locations":[{"lat":47.165375,"lon":9.511084,"type":"break","street":"Laurentiusweg","city":"Schaan","postal_code":"9494","country":"Liechtenstein"},{"lat":47.107216,"lon":9.528277,"type":"break","street":"11 Gapont","city":"Triesen","postal_code":"9495","country":"Liechtenstein"}],"costing":"auto","directions_options":{"units":"miles"}}'
-j '{"locations":[{"lat":47.165375,"lon":9.511084,"type":"break","street":"Laurentiusweg","city":"Schaan","postal_code":"9494","country":"Liechtenstein"},{"lat":47.068691,"lon":9.504094,"type":"break","street":"Zwischenbäch","city":"Balzers","postal_code":"9496","country":"Liechtenstein"}],"costing":"auto","directions_options":{"units":"miles"}}'
-j '{"locations":[{"lat":47.139015,"lon":9.525788,"type":"break","street":"Bergstrasse","city":"Vaduz","postal_code":"94490","country":"Liechtenstein"},{"lat":47.239819,"lon":9.525793,"type":"break","street":"Nellengasse","city":"Ruggell","postal_code":"9488","country":"Liechtenstein"}],"costing":"auto","directions_options":{"units":"miles"}}'
-j '{"locations":[{"lat":47.139015,"lon":9.525788,"type":"break","street":"Bergstrasse","city":"Vaduz","postal_code":"94490","country":"Liechtenstein"},{"lat":47.232986,"lon":9.545749,"type":"break","street":"Franz-Sales-Weg","city":"Schellenberg","postal_code":"9488","country":"Liechtenstein"}],"costing":"auto","directions_options":{"units":"miles"}}'
-j '{"locations":[{"lat":47.139015,"lon":9.525788,"type":"break","street":"Bergstrasse","city":"Vaduz","postal_code":"94490","country":"Liechtenstein"},{"lat":47.218929,"lon":9.509689,"type":"break","street":"Grütt","city":"Gamprin","postal_code":"9487","country":"Liechtenstein"}],"costing":"auto","directions_options":{"units":"miles"}}'
-j '{"locations":[{"lat":47.139015,"lon":9.525788,"type":"break","street":"Bergstrasse","city":"Vaduz","postal_code":"94490","country":"Liechtenstein"},{"lat":47.219368,"lon":9.542434,"type":"break","street":"Weiherring","city":"Mauren","postal_code":"9493","country":"Liechtenstein"}],"costing":"auto","directions_options":{"units":"miles"}}'
-j '{"locations":[{"lat":47.139015,"lon":9.525788,"type":"break","street":"Bergstrasse","city":"Vaduz","postal_code":"94490","country":"Liechtenstein"},{"lat":47.213299,"lon":9.522167,"type":"break","street":"Haldengasse","city":"Eschen","postal_code":"9492","country":"Liechtenstein"}],"costing":"auto","directions_options":{"units":"miles"}}'
-j '{"locations":[{"lat":47.139015,"lon":9.525788,"type":"break","street":"Bergstrasse","city":"Vaduz","postal_code":"94490","country":"Liechtenstein"},{"lat":47.197109,"lon":9.542906,"type":"break","street":"Ziegeleistrasse","city":"Eschen","postal_code":"9485","country":"Liechtenstein"}],"costing":"auto","directions_options":{"units":"miles"}}'
-j '{"locations":[{"lat":47.139015,"lon":9.525788,"type":"break","street":"Bergstrasse","city":"Vaduz","postal_code":"94490","country":"Liechtenstein"},{"lat":47.185909,"lon":9.546339,"type":"break","street":"100 Dorfstrasse","city":"Planken","postal_code":"9498","country":"Liechtenstein"}],"costing":"auto","directions_options":{"units":"miles"}}'
-j '{"locations":[{"lat":47.139015,"lon":9.525788,"type":"break","street":"Bergstrasse","city":"Vaduz","postal_code":"94490","country":"Liechtenstein"},{"lat":47.165375,"lon":9.511084,"type":"break","street":"Laurentiusweg","city":"Schaan","postal_code":"9494","country":"Liechtenstein"}],"costing":"auto","directions_options":{"units":"miles"}}'
-j '{"locations":[{"lat":47.139015,"lon":9.525788,"type":"break","street":"Bergstrasse","city":"Vaduz","postal_code":"94490","country":"Liechtenstein"},{"lat":47.127628,"lon":9.539156,"type":"break","street":"Rotenbodenstrasse","city":"Triesenberg","postal_code":"9497","country":"Liechtenstein"}],"costing":"auto","directions_options":{"units":"miles"}}'
-j '{"locations":[{"lat":47.139015,"lon":9.525788,"type":"break","street":"Bergstrasse","city":"Vaduz","postal_code":"94490","country":"Liechtenstein"},{"lat":47.118752,"lon":9.543147,"type":"break","street":"Schlossstrasse","city":"Triesenberg","postal_code":"9497","country":"Liechtenstein"}],"costing":"auto","directions_options":{"units":"miles"}}'
-j '{"locations":[{"lat":47.139015,"lon":9.525788,"type":"break","street":"Bergstrasse","city":"Vaduz","postal_code":"94490","country":"Liechtenstein"},{"lat":47.107216,"lon":9.528277,"type":"break","street":"11 Gapont","city":"Triesen","postal_code":"9495","country":"Liechtenstein"}],"costing":"auto","directions_options":{"units":"miles"}}'
-j '{"locations":[{"lat":47.139015,"lon":9.525788,"type":"break","street":"Bergstrasse","city":"Vaduz","postal_code":"94490","country":"Liechtenstein"},{"lat":47.068691,"lon":9.504094,"type":"break","street":"Zwischenbäch","city":"Balzers","postal_code":"9496","country":"Liechtenstein"}],"costing":"auto","directions_options":{"units":"miles"}}'
-j '{"locations":[{"lat":47.127628,"lon":9.539156,"type":"break","street":"Rotenbodenstrasse","city":"Triesenberg","postal_code":"9497","country":"Liechtenstein"},{"lat":47.239819,"lon":9.525793,"type":"break","street":"Nellengasse","city":"Ruggell","postal_code":"9488","country":"Liechtenstein"}],"costing":"auto","directions_options":{"units":"miles"}}'
-j '{"locations":[{"lat":47.127628,"lon":9.539156,"type":"break","street":"Rotenbodenstrasse","city":"Triesenberg","postal_code":"9497","country":"Liechtenstein"},{"lat":47.232986,"lon":9.545749,"type":"break","street":"Franz-Sales-Weg","city":"Schellenberg","postal_code":"9488","country":"Liechtenstein"}],"costing":"auto","directions_options":{"units":"miles"}}'
-j '{"locations":[{"lat":47.127628,"lon":9.539156,"type":"break","street":"Rotenbodenstrasse","city":"Triesenberg","postal_code":"9497","country":"Liechtenstein"},{"lat":47.218929,"lon":9.509689,"type":"break","street":"Grütt","city":"Gamprin","postal_code":"9487","country":"Liechtenstein"}],"costing":"auto","directions_options":{"units":"miles"}}'
-j '{"locations":[{"lat":47.127628,"lon":9.539156,"type":"break","street":"Rotenbodenstrasse","city":"Triesenberg","postal_code":"9497","country":"Liechtenstein"},{"lat":47.219368,"lon":9.542434,"type":"break","street":"Weiherring","city":"Mauren","postal_code":"9493","country":"Liechtenstein"}],"costing":"auto","directions_options":{"units":"miles"}}'
-j '{"locations":[{"lat":47.127628,"lon":9.539156,"type":"break","street":"Rotenbodenstrasse","city":"Triesenberg","postal_code":"9497","country":"Liechtenstein"},{"lat":47.213299,"lon":9.522167,"type":"break","street":"Haldengasse","city":"Eschen","postal_code":"9492","country":"Liechtenstein"}],"costing":"auto","directions_options":{"units":"miles"}}'
-j '{"locations":[{"lat":47.127628,"lon":9.539156,"type":"break","street":"Rotenbodenstrasse","city":"Triesenberg","postal_code":"9497","country":"Liechtenstein"},{"lat":47.197109,"lon":9.542906,"type":"break","street":"Ziegeleistrasse","city":"Eschen","postal_code":"9485","country":"Liechtenstein"}],"costing":"auto","directions_options":{"units":"miles"}}'
-j '{"locations":[{"lat":47.127628,"lon":9.539156,"type":"break","street":"Rotenbodenstrasse","city":"Triesenberg","postal_code":"9497","country":"Liechtenstein"},{"lat":47.185909,"lon":9.546339,"type":"break","street":"100 Dorfstrasse","city":"Planken","postal_code":"9498","country":"Liechtenstein"}],"costing":"auto","directions_options":{"units":"miles"}}'
-j '{"locations":[{"lat":47.127628,"lon":9.539156,"type":"break","street":"Rotenbodenstrasse","city":"Triesenberg","postal_code":"9497","country":"Liechtenstein"},{"lat":47.165375,"lon":9.511084,"type":"break","street":"Laurentiusweg","city":"Schaan","postal_code":"9494","country":"Liechtenstein"}],"costing":"auto","directions_options":{"units":"miles"}}'
-j '{"locations":[{"lat":47.127628,"lon":9.539156,"type":"break","street":"Rotenbodenstrasse","city":"Triesenberg","postal_code":"9497","country":"Liechtenstein"},{"lat":47.139015,"lon":9.525788,"type":"break","street":"Bergstrasse","city":"Vaduz","postal_code":"94490","country":"Liechtenstein"}],"costing":"auto","directions_options":{"units":"miles"}}'
-j '{"locations":[{"lat":47.127628,"lon":9.539156,"type":"break","street":"Rotenbodenstrasse","city":"Triesenberg","postal_code":"9497","country":"Liechtenstein"},{"lat":47.118752,"lon":9.543147,"type":"break","street":"Schlossstrasse","city":"Triesenberg","postal_code":"9497","country":"Liechtenstein"}],"costing":"auto","directions_options":{"units":"miles"}}'
-j '{"locations":[{"lat":47.127628,"lon":9.539156,"type":"break","street":"Rotenbodenstrasse","city":"Triesenberg","postal_code":"9497","country":"Liechtenstein"},{"lat":47.107216,"lon":9.528277,"type":"break","street":"11 Gapont","city":"Triesen","postal_code":"9495","country":"Liechtenstein"}],"costing":"auto","directions_options":{"units":"miles"}}'
-j '{"locations":[{"lat":47.127628,"lon":9.539156,"type":"break","street":"Rotenbodenstrasse","city":"Triesenberg","postal_code":"9497","country":"Liechtenstein"},{"lat":47.068691,"lon":9.504094,"type":"break","street":"Zwischenbäch","city":"Balzers","postal_code":"9496","country":"Liechtenstein"}],"costing":"auto","directions_options":{"units":"miles"}}'
-j '{"locations":[{"lat":47.118752,"lon":9.543147,"type":"break","street":"Schlossstrasse","city":"Triesenberg","postal_code":"9497","country":"Liechtenstein"},{"lat":47.239819,"lon":9.525793,"type":"break","street":"Nellengasse","city":"Ruggell","postal_code":"9488","country":"Liechtenstein"}],"costing":"auto","directions_options":{"units":"miles"}}'
-j '{"locations":[{"lat":47.118752,"lon":9.543147,"type":"break","street":"Schlossstrasse","city":"Triesenberg","postal_code":"9497","country":"Liechtenstein"},{"lat":47.232986,"lon":9.545749,"type":"break","street":"Franz-Sales-Weg","city":"Schellenberg","postal_code":"9488","country":"Liechtenstein"}],"costing":"auto","directions_options":{"units":"miles"}}'
-j '{"locations":[{"lat":47.118752,"lon":9.543147,"type":"break","street":"Schlossstrasse","city":"Triesenberg","postal_code":"9497","country":"Liechtenstein"},{"lat":47.218929,"lon":9.509689,"type":"break","street":"Grütt","city":"Gamprin","postal_code":"9487","country":"Liechtenstein"}],"costing":"auto","directions_options":{"units":"miles"}}'
-j '{"locations":[{"lat":47.118752,"lon":9.543147,"type":"break","street":"Schlossstrasse","city":"Triesenberg","postal_code":"9497","country":"Liechtenstein"},{"lat":47.219368,"lon":9.542434,"type":"break","street":"Weiherring","city":"Mauren","postal_code":"9493","country":"Liechtenstein"}],"costing":"auto","directions_options":{"units":"miles"}}'
-j '{"locations":[{"lat":47.118752,"lon":9.543147,"type":"break","street":"Schlossstrasse","city":"Triesenberg","postal_code":"9497","country":"Liechtenstein"},{"lat":47.213299,"lon":9.522167,"type":"break","street":"Haldengasse","city":"Eschen","postal_code":"9492","country":"Liechtenstein"}],"costing":"auto","directions_options":{"units":"miles"}}'
-j '{"locations":[{"lat":47.118752,"lon":9.543147,"type":"break","street":"Schlossstrasse","city":"Triesenberg","postal_code":"9497","country":"Liechtenstein"},{"lat":47.197109,"lon":9.542906,"type":"break","street":"Ziegeleistrasse","city":"Eschen","postal_code":"9485","country":"Liechtenstein"}],"costing":"auto","directions_options":{"units":"miles"}}'
-j '{"locations":[{"lat":47.118752,"lon":9.543147,"type":"break","street":"Schlossstrasse","city":"Triesenberg","postal_code":"9497","country":"Liechtenstein"},{"lat":47.185909,"lon":9.546339,"type":"break","street":"100 Dorfstrasse","city":"Planken","postal_code":"9498","country":"Liechtenstein"}],"costing":"auto","directions_options":{"units":"miles"}}'
-j '{"locations":[{"lat":47.118752,"lon":9.543147,"type":"break","street":"Schlossstrasse","city":"Triesenberg","postal_code":"9497","country":"Liechtenstein"},{"lat":47.165375,"lon":9.511084,"type":"break","street":"Laurentiusweg","city":"Schaan","postal_code":"9494","country":"Liechtenstein"}],"costing":"auto","directions_options":{"units":"miles"}}'
-j '{"locations":[{"lat":47.118752,"lon":9.543147,"type":"break","street":"Schlossstrasse","city":"Triesenberg","postal_code":"9497","country":"Liechtenstein"},{"lat":47.139015,"lon":9.525788,"type":"break","street":"Bergstrasse","city":"Vaduz","postal_code":"94490","country":"Liechtenstein"}],"costing":"auto","directions_options":{"units":"miles"}}'
-j '{"locations":[{"lat":47.118752,"lon":9.543147,"type":"break","street":"Schlossstrasse","city":"Triesenberg","postal_code":"9497","country":"Liechtenstein"},{"lat":47.127628,"lon":9.539156,"type":"break","street":"Rotenbodenstrasse","city":"Triesenberg","postal_code":"9497","country":"Liechtenstein"}],"costing":"auto","directions_options":{"units":"miles"}}'
-j '{"locations":[{"lat":47.118752,"lon":9.543147,"type":"break","street":"Schlossstrasse","city":"Triesenberg","postal_code":"9497","country":"Liechtenstein"},{"lat":47.107216,"lon":9.528277,"type":"break","street":"11 Gapont","city":"Triesen","postal_code":"9495","country":"Liechtenstein"}],"costing":"auto","directions_options":{"units":"miles"}}'
-j '{"locations":[{"lat":47.118752,"lon":9.543147,"type":"break","street":"Schlossstrasse","city":"Triesenberg","postal_code":"9497","country":"Liechtenstein"},{"lat":47.068691,"lon":9.504094,"type":"break","street":"Zwischenbäch","city":"Balzers","postal_code":"9496","country":"Liechtenstein"}],"costing":"auto","directions_options":{"units":"miles"}}'
-j '{"locations":[{"lat":47.107216,"lon":9.528277,"type":"break","street":"11 Gapont","city":"Triesen","postal_code":"9495","country":"Liechtenstein"},{"lat":47.239819,"lon":9.525793,"type":"break","street":"Nellengasse","city":"Ruggell","postal_code":"9488","country":"Liechtenstein"}],"costing":"auto","directions_options":{"units":"miles"}}'
-j '{"locations":[{"lat":47.107216,"lon":9.528277,"type":"break","street":"11 Gapont","city":"Triesen","postal_code":"9495","country":"Liechtenstein"},{"lat":47.232986,"lon":9.545749,"type":"break","street":"Franz-Sales-Weg","city":"Schellenberg","postal_code":"9488","country":"Liechtenstein"}],"costing":"auto","directions_options":{"units":"miles"}}'
-j '{"locations":[{"lat":47.107216,"lon":9.528277,"type":"break","street":"11 Gapont","city":"Triesen","postal_code":"9495","country":"Liechtenstein"},{"lat":47.218929,"lon":9.509689,"type":"break","street":"Grütt","city":"Gamprin","postal_code":"9487","country":"Liechtenstein"}],"costing":"auto","directions_options":{"units":"miles"}}'
-j '{"locations":[{"lat":47.107216,"lon":9.528277,"type":"break","street":"11 Gapont","city":"Triesen","postal_code":"9495","country":"Liechtenstein"},{"lat":47.219368,"lon":9.542434,"type":"break","street":"Weiherring","city":"Mauren","postal_code":"9493","country":"Liechtenstein"}],"costing":"auto","directions_options":{"units":"miles"}}'
-j '{"locations":[{"lat":47.107216,"lon":9.528277,"type":"break","street":"11 Gapont","city":"Triesen","postal_code":"9495","country":"Liechtenstein"},{"lat":47.213299,"lon":9.522167,"type":"break","street":"Haldengasse","city":"Eschen","postal_code":"9492","country":"Liechtenstein"}],"costing":"auto","directions_options":{"units":"miles"}}'
-j '{"locations":[{"lat":47.107216,"lon":9.528277,"type":"break","street":"11 Gapont","city":"Triesen","postal_code":"9495","country":"Liechtenstein"},{"lat":47.197109,"lon":9.542906,"type":"break","street":"Ziegeleistrasse","city":"Eschen","postal_code":"9485","country":"Liechtenstein"}],"costing":"auto","directions_options":{"units":"miles"}}'
-j '{"locations":[{"lat":47.107216,"lon":9.528277,"type":"break","street":"11 Gapont","city":"Triesen","postal_code":"9495","country":"Liechtenstein"},{"lat":47.185909,"lon":9.546339,"type":"break","street":"100 Dorfstrasse","city":"Planken","postal_code":"9498","country":"Liechtenstein"}],"costing":"auto","directions_options":{"units":"miles"}}'
-j '{"locations":[{"lat":47.107216,"lon":9.528277,"type":"break","street":"11 Gapont","city":"Triesen","postal_code":"9495","country":"Liechtenstein"},{"lat":47.165375,"lon":9.511084,"type":"break","street":"Laurentiusweg","city":"Schaan","postal_code":"9494","country":"Liechtenstein"}],"costing":"auto","directions_options":{"units":"miles"}}'
-j '{"locations":[{"lat":47.107216,"lon":9.528277,"type":"break","street":"11 Gapont","city":"Triesen","postal_code":"9495","country":"Liechtenstein"},{"lat":47.139015,"lon":9.525788,"type":"break","street":"Bergstrasse","city":"Vaduz","postal_code":"94490","country":"Liechtenstein"}],"costing":"auto","directions_options":{"units":"miles"}}'
-j '{"locations":[{"lat":47.107216,"lon":9.528277,"type":"break","street":"11 Gapont","city":"Triesen","postal_code":"9495","country":"Liechtenstein"},{"lat":47.127628,"lon":9.539156,"type":"break","street":"Rotenbodenstrasse","city":"Triesenberg","postal_code":"9497","country":"Liechtenstein"}],"costing":"auto","directions_options":{"units":"miles"}}'
-j '{"locations":[{"lat":47.107216,"lon":9.528277,"type":"break","street":"11 Gapont","city":"Triesen","postal_code":"9495","country":"Liechtenstein"},{"lat":47.118752,"lon":9.543147,"type":"break","street":"Schlossstrasse","city":"Triesenberg","postal_code":"9497","country":"Liechtenstein"}],"costing":"auto","directions_options":{"units":"miles"}}'
-j '{"locations":[{"lat":47.107216,"lon":9.528277,"type":"break","street":"11 Gapont","city":"Triesen","postal_code":"9495","country":"Liechtenstein"},{"lat":47.068691,"lon":9.504094,"type":"break","street":"Zwischenbäch","city":"Balzers","postal_code":"9496","country":"Liechtenstein"}],"costing":"auto","directions_options":{"units":"miles"}}'
-j '{"locations":[{"lat":47.068691,"lon":9.504094,"type":"break","street":"Zwischenbäch","city":"Balzers","postal_code":"9496","country":"Liechtenstein"},{"lat":47.239819,"lon":9.525793,"type":"break","street":"Nellengasse","city":"Ruggell","postal_code":"9488","country":"Liechtenstein"}],"costing":"auto","directions_options":{"units":"miles"}}'
-j '{"locations":[{"lat":47.068691,"lon":9.504094,"type":"break","street":"Zwischenbäch","city":"Balzers","postal_code":"9496","country":"Liechtenstein"},{"lat":47.232986,"lon":9.545749,"type":"break","street":"Franz-Sales-Weg","city":"Schellenberg","postal_code":"9488","country":"Liechtenstein"}],"costing":"auto","directions_options":{"units":"miles"}}'
-j '{"locations":[{"lat":47.068691,"lon":9.504094,"type":"break","street":"Zwischenbäch","city":"Balzers","postal_code":"9496","country":"Liechtenstein"},{"lat":47.218929,"lon":9.509689,"type":"break","street":"Grütt","city":"Gamprin","postal_code":"9487","country":"Liechtenstein"}],"costing":"auto","directions_options":{"units":"miles"}}'
-j '{"locations":[{"lat":47.068691,"lon":9.504094,"type":"break","street":"Zwischenbäch","city":"Balzers","postal_code":"9496","country":"Liechtenstein"},{"lat":47.219368,"lon":9.542434,"type":"break","street":"Weiherring","city":"Mauren","postal_code":"9493","country":"Liechtenstein"}],"costing":"auto","directions_options":{"units":"miles"}}'
-j '{"locations":[{"lat":47.068691,"lon":9.504094,"type":"break","street":"Zwischenbäch","city":"Balzers","postal_code":"9496","country":"Liechtenstein"},{"lat":47.213299,"lon":9.522167,"type":"break","street":"Haldengasse","city":"Eschen","postal_code":"9492","country":"Liechtenstein"}],"costing":"auto","directions_options":{"units":"miles"}}'
-j '{"locations":[{"lat":47.068691,"lon":9.504094,"type":"break","street":"Zwischenbäch","city":"Balzers","postal_code":"9496","country":"Liechtenstein"},{"lat":47.197109,"lon":9.542906,"type":"break","street":"Ziegeleistrasse","city":"Eschen","postal_code":"9485","country":"Liechtenstein"}],"costing":"auto","directions_options":{"units":"miles"}}'
-j '{"locations":[{"lat":47.068691,"lon":9.504094,"type":"break","street":"Zwischenbäch","city":"Balzers","postal_code":"9496","country":"Liechtenstein"},{"lat":47.185909,"lon":9.546339,"type":"break","street":"100 Dorfstrasse","city":"Planken","postal_code":"9498","country":"Liechtenstein"}],"costing":"auto","directions_options":{"units":"miles"}}'
-j '{"locations":[{"lat":47.068691,"lon":9.504094,"type":"break","street":"Zwischenbäch","city":"Balzers","postal_code":"9496","country":"Liechtenstein"},{"lat":47.165375,"lon":9.511084,"type":"break","street":"Laurentiusweg","city":"Schaan","postal_code":"9494","country":"Liechtenstein"}],"costing":"auto","directions_options":{"units":"miles"}}'
-j '{"locations":[{"lat":47.068691,"lon":9.504094,"type":"break","street":"Zwischenbäch","city":"Balzers","postal_code":"9496","country":"Liechtenstein"},{"lat":47.139015,"lon":9.525788,"type":"break","street":"Bergstrasse","city":"Vaduz","postal_code":"94490","country":"Liechtenstein"}],"costing":"auto","directions_options":{"units":"miles"}}'
-j '{"locations":[{"lat":47.068691,"lon":9.504094,"type":"break","street":"Zwischenbäch","city":"Balzers","postal_code":"9496","country":"Liechtenstein"},{"lat":47.127628,"lon":9.539156,"type":"break","street":"Rotenbodenstrasse","city":"Triesenberg","postal_code":"9497","country":"Liechtenstein"}],"costing":"auto","directions_options":{"units":"miles"}}'
-j '{"locations":[{"lat":47.068691,"lon":9.504094,"type":"break","street":"Zwischenbäch","city":"Balzers","postal_code":"9496","country":"Liechtenstein"},{"lat":47.118752,"lon":9.543147,"type":"break","street":"Schlossstrasse","city":"Triesenberg","postal_code":"9497","country":"Liechtenstein"}],"costing":"auto","directions_options":{"units":"miles"}}'
-j '{"locations":[{"lat":47.068691,"lon":9.504094,"type":"break","street":"Zwischenbäch","city":"Balzers","postal_code":"9496","country":"Liechtenstein"},{"lat":47.107216,"lon":9.528277,"type":"break","street":"11 Gapont","city":"Triesen","postal_code":"9495","country":"Liechtenstein"}],"costing":"auto","directions_options":{"units":"miles"}}'
